{"type":"FeatureCollection","features":[{"type":"Feature","properties":{"mode":"bus","n":5,"arr":["2","103","1002","1003","1008"],"lines":"2, 103, 1002, 1003, 1008"},"geometry":{"type":"LineString","coordinates":[[10.148875,55.968365],[10.148712,55.967652],[10.148708,55.967643],[10.148698,55.967638],[10.148682,55.967635],[10.148633,55.967632],[10.148508,55.967583]]}},{"type":"Feature","properties":{"mode":"bus","n":9,"arr":["1","2","100","103","302","331","1002","1003","1004"],"lines":"1, 2, 100, 103, 302, 331, 1002, 1003, 1004"},"geometry":{"type":"LineString","coordinates":[[10.149542,55.971704],[10.14969,55.972583]]}},{"type":"Feature","properties":{"mode":"bus","n":10,"arr":["1","2","100","103","302","331","1002","1003","1004","1008"],"lines":"1, 2, 100, 103, 302, 331, 1002, 1003, 1004, 1008"},"geometry":{"type":"LineString","coordinates":[[10.149435,55.971159],[10.149542,55.971704]]}},{"type":"Feature","properties":{"mode":"bus","n":5,"arr":["1","2","100","331","1002"],"lines":"1, 2, 100, 331, 1002"},"geometry":{"type":"LineString","coordinates":[[10.149973,55.974014],[10.148716,55.974036],[10.147966,55.973977]]}},{"type":"Feature","properties":{"mode":"bus","n":6,"arr":["1","103","302","1002","1003","1004"],"lines":"1, 103, 302, 1002, 1003, 1004"},"geometry":{"type":"LineString","coordinates":[[10.149973,55.974014],[10.150804,55.978111]]}},{"type":"Feature","properties":{"mode":"bus","n":6,"arr":["1","2","103","1002","1003","1008"],"lines":"1, 2, 103, 1002, 1003, 1008"},"geometry":{"type":"LineString","coordinates":[[10.149435,55.971159],[10.148875,55.968365]]}},{"type":"Feature","properties":{"mode":"bus","n":6,"arr":["1A","4A","6A","14","41","200"],"lines":"1A, 4A, 6A, 14, 41, 200"},"geometry":{"type":"LineString","coordinates":[[10.161876,56.128181],[10.161454,56.127756]]}},{"type":"Feature","properties":{"mode":"bus","n":6,"arr":["1A","4A","6A","14","41","200"],"lines":"1A, 4A, 6A, 14, 41, 200"},"geometry":{"type":"LineString","coordinates":[[10.162119,56.128565],[10.161824,56.128343],[10.161208,56.127745]]}},{"type":"Feature","properties":{"mode":"bus","n":5,"arr":["1A","4A","14","41","200"],"lines":"1A, 4A, 14, 41, 200"},"geometry":{"type":"LineString","coordinates":[[10.162457,56.128564],[10.162206,56.128372],[10.161876,56.128181]]}},{"type":"Feature","properties":{"mode":"bus","n":5,"arr":["1A","4A","14","41","200"],"lines":"1A, 4A, 14, 41, 200"},"geometry":{"type":"LineString","coordinates":[[10.176776,56.137094],[10.170528,56.133705],[10.169564,56.133091],[10.167173,56.131473],[10.165152,56.130197]]}},{"type":"Feature","properties":{"mode":"bus","n":5,"arr":["1A","4A","14","41","200"],"lines":"1A, 4A, 14, 41, 200"},"geometry":{"type":"LineString","coordinates":[[10.17662,56.137181],[10.171076,56.134184],[10.170032,56.13359],[10.16699,56.13155],[10.164312,56.129851],[10.162765,56.128984],[10.162119,56.128565]]}},{"type":"Feature","properties":{"mode":"bus","n":7,"arr":["1A","4A","11","14","41","42","200"],"lines":"1A, 4A, 11, 14, 41, 42, 200"},"geometry":{"type":"LineString","coordinates":[[10.165152,56.130197],[10.164271,56.129643],[10.162955,56.128904],[10.162457,56.128564]]}},{"type":"Feature","properties":{"mode":"bus","n":7,"arr":["1A","2A","4A","14","40","41","200"],"lines":"1A, 2A, 4A, 14, 40, 41, 200"},"geometry":{"type":"LineString","coordinates":[[10.189595,56.143992],[10.187465,56.142865],[10.183087,56.140349],[10.182038,56.139675],[10.181321,56.13928],[10.178454,56.137951],[10.176776,56.137094]]}},{"type":"Feature","properties":{"mode":"bus","n":7,"arr":["1A","2A","4A","14","40","41","200"],"lines":"1A, 2A, 4A, 14, 40, 41, 200"},"geometry":{"type":"LineString","coordinates":[[10.189185,56.143956],[10.181504,56.139542],[10.180945,56.139247],[10.177793,56.137802],[10.17662,56.137181]]}},{"type":"Feature","properties":{"mode":"bus","n":9,"arr":["1A","2A","4A","11","14","40","41","42","200"],"lines":"1A, 2A, 4A, 11, 14, 40, 41, 42, 200"},"geometry":{"type":"LineString","coordinates":[[10.196471,56.148095],[10.196413,56.148027],[10.19572,56.14753],[10.195481,56.147313],[10.194417,56.146554],[10.193403,56.145996],[10.19064,56.144614],[10.189595,56.143992]]}},{"type":"Feature","properties":{"mode":"bus","n":9,"arr":["1A","2A","4A","11","14","40","41","42","200"],"lines":"1A, 2A, 4A, 11, 14, 40, 41, 42, 200"},"geometry":{"type":"LineString","coordinates":[[10.198356,56.149609],[10.19752,56.148881],[10.196736,56.148272],[10.196308,56.148004],[10.19433,56.146581],[10.189185,56.143956]]}},{"type":"Feature","properties":{"mode":"bus","n":9,"arr":["1A","2A","4A","11","14","40","41","42","200"],"lines":"1A, 2A, 4A, 11, 14, 40, 41, 42, 200"},"geometry":{"type":"LineString","coordinates":[[10.198697,56.149921],[10.199479,56.150605]]}},{"type":"Feature","properties":{"mode":"bus","n":9,"arr":["1A","2A","4A","11","14","40","41","42","200"],"lines":"1A, 2A, 4A, 11, 14, 40, 41, 42, 200"},"geometry":{"type":"LineString","coordinates":[[10.198356,56.149609],[10.198461,56.149754],[10.198657,56.149893],[10.198669,56.1499],[10.198677,56.149905],[10.198682,56.149905],[10.198683,56.149903],[10.198682,56.149897],[10.198677,56.149887],[10.198613,56.149781],[10.198356,56.149609]]}},{"type":"Feature","properties":{"mode":"bus","n":14,"arr":["1A","2A","3A","4A","11","14","40","41","42","43","44","45","46","200"],"lines":"1A, 2A, 3A, 4A, 11, 14, 40, 41, 42, 43, 44, 45, 46, 200"},"geometry":{"type":"LineString","coordinates":[[10.202537,56.150412],[10.201787,56.150422],[10.20029,56.150497],[10.19979,56.150545],[10.199479,56.150605]]}},{"type":"Feature","properties":{"mode":"bus","n":11,"arr":["1A","2A","3A","4A","11","14","43","44","45","46","200"],"lines":"1A, 2A, 3A, 4A, 11, 14, 43, 44, 45, 46, 200"},"geometry":{"type":"LineString","coordinates":[[10.202537,56.150412],[10.202817,56.150382],[10.203107,56.150399]]}},{"type":"Feature","properties":{"mode":"bus","n":14,"arr":["1A","2A","3A","4A","11","12","14","15","43","44","45","46","200","925X"],"lines":"1A, 2A, 3A, 4A, 11, 12, 14, 15, 43, 44, 45, 46, 200, 925X"},"geometry":{"type":"LineString","coordinates":[[10.203107,56.150399],[10.203263,56.150428]]}},{"type":"Feature","properties":{"mode":"bus","n":16,"arr":["1A","2A","3A","4A","11","13","14","16","17","18","43","44","45","46","100","200"],"lines":"1A, 2A, 3A, 4A, 11, 13, 14, 16, 17, 18, 43, 44, 45, 46, 100, 200"},"geometry":{"type":"LineString","coordinates":[[10.203263,56.150428],[10.203318,56.150537]]}},{"type":"Feature","properties":{"mode":"bus","n":18,"arr":["1A","2A","3A","4A","11","12","13","14","15","16","17","18","43","44","45","46","100","200"],"lines":"1A, 2A, 3A, 4A, 11, 12, 13, 14, 15, 16, 17, 18, 43, 44, 45, 46, 100, 200"},"geometry":{"type":"LineString","coordinates":[[10.203318,56.150537],[10.203279,56.15066],[10.203113,56.150879]]}},{"type":"Feature","properties":{"mode":"bus","n":24,"arr":["1A","2A","3A","4A","11","12","13","14","15","16","17","18","40","41","42","43","44","45","46","100","103","200","302","925X"],"lines":"1A, 2A, 3A, 4A, 11, 12, 13, 14, 15, 16, 17, 18, 40, 41, 42, 43, 44, 45, 46, 100, 103, 200, 302, 925X"},"geometry":{"type":"LineString","coordinates":[[10.203113,56.150879],[10.203041,56.151013],[10.203036,56.151125],[10.203999,56.153107]]}},{"type":"Feature","properties":{"mode":"bus","n":15,"arr":["1A","2A","3A","4A","11","13","16","17","18","43","44","45","46","100","200"],"lines":"1A, 2A, 3A, 4A, 11, 13, 16, 17, 18, 43, 44, 45, 46, 100, 200"},"geometry":{"type":"LineString","coordinates":[[10.205884,56.160096],[10.206029,56.159712],[10.206021,56.159613],[10.205899,56.159189],[10.205884,56.158843],[10.2056,56.158244],[10.205559,56.157665],[10.205589,56.157166],[10.205483,56.15703],[10.205454,56.156935],[10.205397,56.156871],[10.205185,56.156739],[10.205155,56.156667],[10.20527,56.156491],[10.205691,56.156166],[10.206276,56.155898],[10.206347,56.155699],[10.206107,56.155408],[10.205156,56.15455],[10.203999,56.153107]]}},{"type":"Feature","properties":{"mode":"bus","n":8,"arr":["1A","3A","16","17","18","46","100","200"],"lines":"1A, 3A, 16, 17, 18, 46, 100, 200"},"geometry":{"type":"LineString","coordinates":[[10.210283,56.161332],[10.209165,56.160578],[10.208964,56.160472],[10.208817,56.160437],[10.208004,56.160335],[10.205884,56.160096]]}},{"type":"Feature","properties":{"mode":"bus","n":8,"arr":["1A","3A","16","17","18","46","100","200"],"lines":"1A, 3A, 16, 17, 18, 46, 100, 200"},"geometry":{"type":"LineString","coordinates":[[10.211417,56.162034],[10.211037,56.161716],[10.21061,56.161476],[10.210334,56.161354],[10.210319,56.161348],[10.21031,56.161345],[10.210306,56.161345],[10.210306,56.161347],[10.210312,56.161352],[10.210322,56.16136],[10.211128,56.161942]]}},{"type":"Feature","properties":{"mode":"bus","n":9,"arr":["1A","12","15","16","18","100","123","200","925X"],"lines":"1A, 12, 15, 16, 18, 100, 123, 200, 925X"},"geometry":{"type":"LineString","coordinates":[[10.211417,56.162034],[10.211205,56.162221],[10.210809,56.162755],[10.209255,56.164878],[10.208769,56.165651]]}},{"type":"Feature","properties":{"mode":"bus","n":7,"arr":["1A","12","17","46","100","123","925X"],"lines":"1A, 12, 17, 46, 100, 123, 925X"},"geometry":{"type":"LineString","coordinates":[[10.21861,56.178199],[10.218099,56.181147],[10.217973,56.182396],[10.217965,56.182872],[10.218233,56.185728]]}},{"type":"Feature","properties":{"mode":"bus","n":7,"arr":["1A","12","17","46","100","123","925X"],"lines":"1A, 12, 17, 46, 100, 123, 925X"},"geometry":{"type":"LineString","coordinates":[[10.218076,56.185733],[10.217828,56.182871],[10.217827,56.182401],[10.217927,56.181141],[10.218363,56.178447]]}},{"type":"Feature","properties":{"mode":"bus","n":5,"arr":["1A","18","100","123","925X"],"lines":"1A, 18, 100, 123, 925X"},"geometry":{"type":"LineString","coordinates":[[10.21854,56.188931],[10.218785,56.192462],[10.21885,56.192979],[10.218954,56.193353],[10.21916,56.193927],[10.219468,56.194501],[10.219937,56.195081],[10.22043,56.195528]]}},{"type":"Feature","properties":{"mode":"bus","n":5,"arr":["1A","18","100","123","925X"],"lines":"1A, 18, 100, 123, 925X"},"geometry":{"type":"LineString","coordinates":[[10.220282,56.19562],[10.219782,56.195148],[10.219323,56.194525],[10.219019,56.193948],[10.218668,56.192992],[10.218554,56.192344],[10.218329,56.18901]]}},{"type":"Feature","properties":{"mode":"bus","n":6,"arr":["1A","16","18","100","123","925X"],"lines":"1A, 16, 18, 100, 123, 925X"},"geometry":{"type":"LineString","coordinates":[[10.22043,56.195528],[10.220571,56.195634]]}},{"type":"Feature","properties":{"mode":"bus","n":8,"arr":["1A","12","15","16","18","100","123","200"],"lines":"1A, 12, 15, 16, 18, 100, 123, 200"},"geometry":{"type":"LineString","coordinates":[[10.211128,56.161942],[10.210185,56.163275],[10.208364,56.165691]]}},{"type":"Feature","properties":{"mode":"bus","n":14,"arr":["1A","2A","3A","4A","11","13","16","17","18","43","45","46","100","200"],"lines":"1A, 2A, 3A, 4A, 11, 13, 16, 17, 18, 43, 45, 46, 100, 200"},"geometry":{"type":"LineString","coordinates":[[10.205483,56.15703],[10.205355,56.156957],[10.205239,56.156784]]}},{"type":"Feature","properties":{"mode":"bus","n":14,"arr":["1A","2A","3A","4A","11","13","16","17","18","43","45","46","100","200"],"lines":"1A, 2A, 3A, 4A, 11, 13, 16, 17, 18, 43, 45, 46, 100, 200"},"geometry":{"type":"LineString","coordinates":[[10.206328,56.155811],[10.206034,56.155431],[10.206005,56.155339]]}},{"type":"Feature","properties":{"mode":"bus","n":20,"arr":["1A","2A","3A","4A","11","12","13","14","15","16","17","18","40","41","42","100","103","200","302","925X"],"lines":"1A, 2A, 3A, 4A, 11, 12, 13, 14, 15, 16, 17, 18, 40, 41, 42, 100, 103, 200, 302, 925X"},"geometry":{"type":"LineString","coordinates":[[10.203113,56.150879],[10.203129,56.150508]]}},{"type":"Feature","properties":{"mode":"bus","n":10,"arr":["1A","2A","3A","4A","11","14","40","41","42","200"],"lines":"1A, 2A, 3A, 4A, 11, 14, 40, 41, 42, 200"},"geometry":{"type":"LineString","coordinates":[[10.203129,56.150508],[10.202537,56.150412]]}},{"type":"Feature","properties":{"mode":"bus","n":8,"arr":["2","100","103","302","331","1002","1003","1004"],"lines":"2, 100, 103, 302, 331, 1002, 1003, 1004"},"geometry":{"type":"LineString","coordinates":[[10.14969,55.972583],[10.14978,55.973247],[10.149973,55.974014]]}},{"type":"Feature","properties":{"mode":"bus","n":5,"arr":["2","4","115","118","314"],"lines":"2, 4, 115, 118, 314"},"geometry":{"type":"LineString","coordinates":[[10.04802,56.327465],[10.047238,56.327719],[10.046775,56.327915],[10.046621,56.32794],[10.046503,56.327986],[10.046471,56.32803],[10.046463,56.328125],[10.046577,56.328242],[10.047265,56.328843]]}},{"type":"Feature","properties":{"mode":"bus","n":7,"arr":["2A","4A","11","13","43","44","45"],"lines":"2A, 4A, 11, 13, 43, 44, 45"},"geometry":{"type":"LineString","coordinates":[[10.205884,56.160096],[10.203668,56.159821],[10.202373,56.159519],[10.201678,56.159296],[10.199733,56.158285]]}},{"type":"Feature","properties":{"mode":"bus","n":6,"arr":["3A","14","44","114","118","925X"],"lines":"3A, 14, 44, 114, 118, 925X"},"geometry":{"type":"LineString","coordinates":[[10.182826,56.160946],[10.184334,56.16052]]}},{"type":"Feature","properties":{"mode":"bus","n":6,"arr":["3A","14","44","114","118","925X"],"lines":"3A, 14, 44, 114, 118, 925X"},"geometry":{"type":"LineString","coordinates":[[10.193694,56.157374],[10.193335,56.157593],[10.191635,56.158189],[10.184334,56.16052],[10.183962,56.160698],[10.182887,56.16106]]}},{"type":"Feature","properties":{"mode":"bus","n":11,"arr":["3A","4A","11","14","15","43","44","113","114","118","925X"],"lines":"3A, 4A, 11, 14, 15, 43, 44, 113, 114, 118, 925X"},"geometry":{"type":"LineString","coordinates":[[10.194298,56.157481],[10.193694,56.157374]]}},{"type":"Feature","properties":{"mode":"bus","n":8,"arr":["3A","14","15","44","113","114","118","925X"],"lines":"3A, 14, 15, 44, 113, 114, 118, 925X"},"geometry":{"type":"LineString","coordinates":[[10.195874,56.156369],[10.195472,56.156563],[10.195167,56.156801],[10.195033,56.156958],[10.194735,56.157515],[10.194718,56.157533],[10.194691,56.157541],[10.194655,56.157539],[10.194298,56.157481]]}},{"type":"Feature","properties":{"mode":"bus","n":9,"arr":["3A","12","14","15","44","113","114","118","925X"],"lines":"3A, 12, 14, 15, 44, 113, 114, 118, 925X"},"geometry":{"type":"LineString","coordinates":[[10.202472,56.153283],[10.200821,56.153778],[10.20054,56.153895],[10.200316,56.154034],[10.199948,56.154323],[10.19978,56.154504],[10.199473,56.154895],[10.199377,56.155147],[10.199365,56.155164],[10.199344,56.155174],[10.199313,56.15518],[10.199215,56.155187],[10.198894,56.155279],[10.198742,56.155372],[10.195874,56.156369]]}},{"type":"Feature","properties":{"mode":"bus","n":8,"arr":["3A","40","41","42","43","44","45","46"],"lines":"3A, 40, 41, 42, 43, 44, 45, 46"},"geometry":{"type":"LineString","coordinates":[[10.199479,56.150605],[10.200577,56.151546],[10.202472,56.153283]]}},{"type":"Feature","properties":{"mode":"bus","n":7,"arr":["3A","12","14","15","113","114","118"],"lines":"3A, 12, 14, 15, 113, 114, 118"},"geometry":{"type":"LineString","coordinates":[[10.199679,56.154631],[10.19964,56.154921],[10.199544,56.155198],[10.199531,56.155218],[10.199506,56.155234],[10.19947,56.155244],[10.198742,56.155372]]}},{"type":"Feature","properties":{"mode":"bus","n":6,"arr":["3A","14","15","113","114","118"],"lines":"3A, 14, 15, 113, 114, 118"},"geometry":{"type":"LineString","coordinates":[[10.194697,56.157585],[10.194717,56.157549]]}},{"type":"Feature","properties":{"mode":"bus","n":10,"arr":["3A","4A","11","14","15","43","44","113","114","118"],"lines":"3A, 4A, 11, 14, 15, 43, 44, 113, 114, 118"},"geometry":{"type":"LineString","coordinates":[[10.194203,56.157559],[10.194697,56.157585]]}},{"type":"Feature","properties":{"mode":"bus","n":5,"arr":["3A","14","44","114","118"],"lines":"3A, 14, 44, 114, 118"},"geometry":{"type":"LineString","coordinates":[[10.191635,56.158189],[10.193292,56.157702],[10.193739,56.1576],[10.194203,56.157559]]}},{"type":"Feature","properties":{"mode":"bus","n":5,"arr":["4A","11","12","43","113"],"lines":"4A, 11, 12, 43, 113"},"geometry":{"type":"LineString","coordinates":[[10.136519,56.152982],[10.14157,56.15329],[10.143652,56.15347]]}},{"type":"Feature","properties":{"mode":"bus","n":5,"arr":["4A","11","12","43","113"],"lines":"4A, 11, 12, 43, 113"},"geometry":{"type":"LineString","coordinates":[[10.136533,56.15311],[10.141295,56.153398],[10.143871,56.153616]]}},{"type":"Feature","properties":{"mode":"bus","n":5,"arr":["4A","11","15","43","113"],"lines":"4A, 11, 15, 43, 113"},"geometry":{"type":"LineString","coordinates":[[10.165754,56.155153],[10.171033,56.155539],[10.174123,56.155743],[10.174433,56.155794]]}},{"type":"Feature","properties":{"mode":"bus","n":5,"arr":["4A","11","15","43","113"],"lines":"4A, 11, 15, 43, 113"},"geometry":{"type":"LineString","coordinates":[[10.193694,56.157374],[10.191743,56.157039],[10.187908,56.15644],[10.187475,56.156394],[10.179916,56.156119],[10.17719,56.155934],[10.176239,56.155922]]}},{"type":"Feature","properties":{"mode":"bus","n":5,"arr":["4A","11","15","43","113"],"lines":"4A, 11, 15, 43, 113"},"geometry":{"type":"LineString","coordinates":[[10.165728,56.155229],[10.166936,56.155315],[10.167552,56.155333],[10.173289,56.155748],[10.174618,56.155807],[10.176239,56.155922],[10.177076,56.156025],[10.179097,56.15617],[10.181587,56.156281],[10.184513,56.15636],[10.187367,56.156472],[10.187981,56.156542],[10.190688,56.15696],[10.191164,56.157053],[10.192501,56.157252],[10.194203,56.157559]]}},{"type":"Feature","properties":{"mode":"bus","n":5,"arr":["5A","17","100","103","302"],"lines":"5A, 17, 100, 103, 302"},"geometry":{"type":"LineString","coordinates":[[10.203837,56.141568],[10.203964,56.141305],[10.204117,56.141151],[10.206251,56.139487]]}},{"type":"Feature","properties":{"mode":"bus","n":7,"arr":["5A","16","17","18","100","103","302"],"lines":"5A, 16, 17, 18, 100, 103, 302"},"geometry":{"type":"LineString","coordinates":[[10.203837,56.141568],[10.203815,56.141673]]}},{"type":"Feature","properties":{"mode":"bus","n":5,"arr":["5A","12","100","123","925X"],"lines":"5A, 12, 100, 123, 925X"},"geometry":{"type":"LineString","coordinates":[[10.206461,56.17193],[10.205986,56.1718],[10.20486,56.171594]]}},{"type":"Feature","properties":{"mode":"bus","n":5,"arr":["5A","12","100","123","925X"],"lines":"5A, 12, 100, 123, 925X"},"geometry":{"type":"LineString","coordinates":[[10.20476,56.171743],[10.206461,56.17193],[10.208172,56.172172],[10.209507,56.17245],[10.209948,56.172578],[10.210883,56.17294],[10.215343,56.174812],[10.215675,56.175038],[10.217754,56.176971]]}},{"type":"Feature","properties":{"mode":"bus","n":6,"arr":["5A","12","100","118","123","925X"],"lines":"5A, 12, 100, 118, 123, 925X"},"geometry":{"type":"LineString","coordinates":[[10.20438,56.171689],[10.20476,56.171743]]}},{"type":"Feature","properties":{"mode":"bus","n":5,"arr":["6","7","8","115","200"],"lines":"6, 7, 8, 115, 200"},"geometry":{"type":"LineString","coordinates":[[10.060764,56.263593],[10.060887,56.263527],[10.061086,56.263491]]}},{"type":"Feature","properties":{"mode":"bus","n":5,"arr":["6","7","8","115","200"],"lines":"6, 7, 8, 115, 200"},"geometry":{"type":"LineString","coordinates":[[10.062628,56.263206],[10.063947,56.262965],[10.064924,56.262826],[10.06557,56.262688],[10.066041,56.262573],[10.067191,56.262187],[10.068037,56.261789],[10.068474,56.261536],[10.069325,56.260878],[10.069864,56.260302]]}},{"type":"Feature","properties":{"mode":"bus","n":5,"arr":["6","7","8","115","200"],"lines":"6, 7, 8, 115, 200"},"geometry":{"type":"LineString","coordinates":[[10.070313,56.259558],[10.070505,56.258865],[10.071104,56.255126]]}},{"type":"Feature","properties":{"mode":"bus","n":5,"arr":["6A","16","100","103","302"],"lines":"6A, 16, 100, 103, 302"},"geometry":{"type":"LineString","coordinates":[[10.207102,56.103256],[10.206878,56.104089],[10.206866,56.104744],[10.207016,56.105433],[10.207653,56.107511]]}},{"type":"Feature","properties":{"mode":"bus","n":5,"arr":["6A","16","100","103","302"],"lines":"6A, 16, 100, 103, 302"},"geometry":{"type":"LineString","coordinates":[[10.207473,56.102562],[10.20712,56.103222],[10.207115,56.103231],[10.207111,56.103237],[10.207109,56.103238],[10.207108,56.103236],[10.207109,56.10323],[10.207111,56.10322],[10.207177,56.102959],[10.20737,56.102545]]}},{"type":"Feature","properties":{"mode":"bus","n":5,"arr":["11","13","16","18","42"],"lines":"11, 13, 16, 18, 42"},"geometry":{"type":"LineString","coordinates":[[10.189741,56.132536],[10.189963,56.132841],[10.190054,56.133113]]}},{"type":"Feature","properties":{"mode":"bus","n":5,"arr":["11","13","16","18","42"],"lines":"11, 13, 16, 18, 42"},"geometry":{"type":"LineString","coordinates":[[10.189763,56.135846],[10.189894,56.136121],[10.18992,56.136331]]}},{"type":"Feature","properties":{"mode":"bus","n":5,"arr":["11","13","16","18","42"],"lines":"11, 13, 16, 18, 42"},"geometry":{"type":"LineString","coordinates":[[10.18977,56.136305],[10.189737,56.136021],[10.18977,56.135236],[10.19012,56.133801],[10.190139,56.133486],[10.190054,56.133113],[10.189716,56.132661]]}},{"type":"Feature","properties":{"mode":"bus","n":7,"arr":["12","16","18","100","118","123","200"],"lines":"12, 16, 18, 100, 118, 123, 200"},"geometry":{"type":"LineString","coordinates":[[10.20438,56.171689],[10.204487,56.171534]]}},{"type":"Feature","properties":{"mode":"bus","n":6,"arr":["12","16","18","100","123","200"],"lines":"12, 16, 18, 100, 123, 200"},"geometry":{"type":"LineString","coordinates":[[10.204487,56.171534],[10.204943,56.170876],[10.205249,56.170495],[10.2069,56.168049],[10.207211,56.167505],[10.208364,56.165691]]}},{"type":"Feature","properties":{"mode":"bus","n":8,"arr":["12","15","31","113","114","118","123","925X"],"lines":"12, 15, 31, 113, 114, 118, 123, 925X"},"geometry":{"type":"LineString","coordinates":[[10.209539,56.152186],[10.209862,56.152118]]}},{"type":"Feature","properties":{"mode":"bus","n":10,"arr":["12","15","31","103","113","114","118","123","302","925X"],"lines":"12, 15, 31, 103, 113, 114, 118, 123, 302, 925X"},"geometry":{"type":"LineString","coordinates":[[10.208083,56.152007],[10.208336,56.152448],[10.208348,56.152461],[10.208364,56.152468],[10.208385,56.152468],[10.208409,56.152461],[10.208564,56.152401],[10.209539,56.152186]]}},{"type":"Feature","properties":{"mode":"bus","n":9,"arr":["12","15","103","113","114","118","123","302","925X"],"lines":"12, 15, 103, 113, 114, 118, 123, 302, 925X"},"geometry":{"type":"LineString","coordinates":[[10.20775,56.151491],[10.208083,56.152007]]}},{"type":"Feature","properties":{"mode":"bus","n":5,"arr":["12","15","103","302","925X"],"lines":"12, 15, 103, 302, 925X"},"geometry":{"type":"LineString","coordinates":[[10.203263,56.150428],[10.204516,56.150626],[10.204947,56.150664],[10.206101,56.150829],[10.206814,56.150952],[10.20704,56.151024],[10.207516,56.151247],[10.20775,56.151491]]}},{"type":"Feature","properties":{"mode":"bus","n":13,"arr":["12","14","15","40","41","42","43","45","46","113","114","118","925X"],"lines":"12, 14, 15, 40, 41, 42, 43, 45, 46, 113, 114, 118, 925X"},"geometry":{"type":"LineString","coordinates":[[10.203999,56.153107],[10.202472,56.153283]]}},{"type":"Feature","properties":{"mode":"bus","n":10,"arr":["12","13","15","16","17","18","100","103","302","925X"],"lines":"12, 13, 15, 16, 17, 18, 100, 103, 302, 925X"},"geometry":{"type":"LineString","coordinates":[[10.203129,56.150508],[10.203107,56.150399]]}},{"type":"Feature","properties":{"mode":"bus","n":7,"arr":["12","15","31","113","114","118","123"],"lines":"12, 15, 31, 113, 114, 118, 123"},"geometry":{"type":"LineString","coordinates":[[10.209693,56.152074],[10.209862,56.152118]]}},{"type":"Feature","properties":{"mode":"bus","n":5,"arr":["12","15","31","123","925X"],"lines":"12, 15, 31, 123, 925X"},"geometry":{"type":"LineString","coordinates":[[10.210766,56.151922],[10.209862,56.152118]]}},{"type":"Feature","properties":{"mode":"bus","n":7,"arr":["12","16","18","100","123","200","925X"],"lines":"12, 16, 18, 100, 123, 200, 925X"},"geometry":{"type":"LineString","coordinates":[[10.208769,56.165651],[10.205863,56.169971],[10.205295,56.170835],[10.20486,56.171594]]}},{"type":"Feature","properties":{"mode":"bus","n":7,"arr":["13","16","17","18","100","103","302"],"lines":"13, 16, 17, 18, 100, 103, 302"},"geometry":{"type":"LineString","coordinates":[[10.204338,56.145477],[10.204174,56.146342],[10.203988,56.146511],[10.20386,56.146567],[10.203827,56.146576],[10.203796,56.146574],[10.203768,56.146561],[10.203643,56.146477],[10.203559,56.146333],[10.203732,56.145431]]}},{"type":"Feature","properties":{"mode":"bus","n":7,"arr":["13","16","17","18","100","103","302"],"lines":"13, 16, 17, 18, 100, 103, 302"},"geometry":{"type":"LineString","coordinates":[[10.203809,56.146589],[10.203092,56.150057]]}},{"type":"Feature","properties":{"mode":"bus","n":7,"arr":["13","16","17","18","100","103","302"],"lines":"13, 16, 17, 18, 100, 103, 302"},"geometry":{"type":"LineString","coordinates":[[10.203107,56.150399],[10.20305,56.150182],[10.20308,56.150092],[10.203084,56.150083],[10.203088,56.150077],[10.203092,56.150075],[10.203096,56.150077],[10.2031,56.150083],[10.203103,56.150092],[10.203161,56.150272],[10.203263,56.150428]]}},{"type":"Feature","properties":{"mode":"bus","n":5,"arr":["16","18","100","123","925X"],"lines":"16, 18, 100, 123, 925X"},"geometry":{"type":"LineString","coordinates":[[10.237459,56.199485],[10.234078,56.198681],[10.231244,56.198126],[10.224405,56.19712],[10.223758,56.197017],[10.223123,56.196887],[10.222511,56.196721],[10.221874,56.196502],[10.22099,56.196079],[10.220414,56.195726]]}},{"type":"Feature","properties":{"mode":"bus","n":5,"arr":["16","18","100","123","925X"],"lines":"16, 18, 100, 123, 925X"},"geometry":{"type":"LineString","coordinates":[[10.220571,56.195634],[10.221271,56.19607],[10.221808,56.196324],[10.222608,56.196616],[10.223508,56.196848],[10.224447,56.197024],[10.231293,56.198039],[10.234143,56.198598],[10.237465,56.199331]]}},{"type":"Feature","properties":{"mode":"bus","n":6,"arr":["16","17","18","100","103","302"],"lines":"16, 17, 18, 100, 103, 302"},"geometry":{"type":"LineString","coordinates":[[10.203732,56.145431],[10.204135,56.145423],[10.204183,56.145409],[10.204204,56.1454],[10.204214,56.145386],[10.204323,56.145059]]}},{"type":"Feature","properties":{"mode":"bus","n":6,"arr":["16","17","18","100","103","302"],"lines":"16, 17, 18, 100, 103, 302"},"geometry":{"type":"LineString","coordinates":[[10.203658,56.141672],[10.203724,56.141971],[10.203835,56.142061]]}},{"type":"Feature","properties":{"mode":"bus","n":6,"arr":["16","17","18","100","103","302"],"lines":"16, 17, 18, 100, 103, 302"},"geometry":{"type":"LineString","coordinates":[[10.203815,56.141673],[10.203835,56.142061],[10.204146,56.142886],[10.204338,56.143904],[10.204367,56.144401],[10.204323,56.145059],[10.204358,56.145305],[10.204338,56.145477]]}},{"type":"Feature","properties":{"mode":"bus","n":6,"arr":["16","17","18","100","103","302"],"lines":"16, 17, 18, 100, 103, 302"},"geometry":{"type":"LineString","coordinates":[[10.203673,56.141534],[10.203837,56.141568]]}},{"type":"Feature","properties":{"mode":"bus","n":5,"arr":["16","40","100","103","302"],"lines":"16, 40, 100, 103, 302"},"geometry":{"type":"LineString","coordinates":[[10.20737,56.102545],[10.207941,56.101435]]}},{"type":"Feature","properties":{"mode":"bus","n":5,"arr":["16","40","100","103","302"],"lines":"16, 40, 100, 103, 302"},"geometry":{"type":"LineString","coordinates":[[10.20958,56.095887],[10.209475,56.094383],[10.209462,56.0935]]}},{"type":"Feature","properties":{"mode":"bus","n":5,"arr":["16","40","100","103","302"],"lines":"16, 40, 100, 103, 302"},"geometry":{"type":"LineString","coordinates":[[10.209667,56.093501],[10.209664,56.09519],[10.209641,56.095594],[10.20958,56.095887],[10.209545,56.09754],[10.20942,56.098243],[10.209271,56.098641],[10.207941,56.101435],[10.207473,56.102562]]}},{"type":"Feature","properties":{"mode":"bus","n":5,"arr":["17","31","100","103","302"],"lines":"17, 31, 100, 103, 302"},"geometry":{"type":"LineString","coordinates":[[10.207656,56.142661],[10.207449,56.142096],[10.207447,56.14191],[10.207208,56.140977],[10.207047,56.140137],[10.206944,56.138979],[10.207089,56.138435]]}},{"type":"Feature","properties":{"mode":"bus","n":5,"arr":["17","31","100","103","302"],"lines":"17, 31, 100, 103, 302"},"geometry":{"type":"LineString","coordinates":[[10.207072,56.139109],[10.207089,56.138435],[10.207303,56.137553],[10.20744,56.137209],[10.20761,56.136924],[10.209009,56.135248]]}},{"type":"Feature","properties":{"mode":"bus","n":5,"arr":["17","31","100","103","302"],"lines":"17, 31, 100, 103, 302"},"geometry":{"type":"LineString","coordinates":[[10.209009,56.135248],[10.209278,56.134871],[10.209366,56.134813],[10.209378,56.134805],[10.209387,56.134801],[10.209394,56.134801],[10.209397,56.134804],[10.209398,56.13481],[10.209395,56.13482],[10.209371,56.134895],[10.209271,56.135021],[10.209009,56.135248]]}},{"type":"Feature","properties":{"mode":"bus","n":6,"arr":["21","200","309","311","330","331"],"lines":"21, 200, 309, 311, 330, 331"},"geometry":{"type":"LineString","coordinates":[[9.946684,56.048777],[9.941484,56.048386],[9.940091,56.048201],[9.93875,56.047912],[9.937839,56.047631],[9.937087,56.047336],[9.93163,56.044625],[9.930803,56.044306],[9.929888,56.044042],[9.927741,56.043525],[9.926917,56.043345],[9.926269,56.043232]]}},{"type":"Feature","properties":{"mode":"bus","n":6,"arr":["21","200","309","311","330","331"],"lines":"21, 200, 309, 311, 330, 331"},"geometry":{"type":"LineString","coordinates":[[9.946637,56.048894],[9.942435,56.048583],[9.940851,56.048443],[9.939771,56.04828],[9.938781,56.04805],[9.937623,56.047691],[9.936819,56.047366],[9.932966,56.045451],[9.931616,56.044798],[9.931202,56.04463],[9.930566,56.044397],[9.929607,56.044102],[9.927281,56.043534],[9.926212,56.043336]]}},{"type":"Feature","properties":{"mode":"bus","n":7,"arr":["21","26S","200","309","311","330","331"],"lines":"21, 26S, 200, 309, 311, 330, 331"},"geometry":{"type":"LineString","coordinates":[[9.926212,56.043336],[9.923489,56.04288]]}},{"type":"Feature","properties":{"mode":"bus","n":6,"arr":["103","113","114","118","123","302"],"lines":"103, 113, 114, 118, 123, 302"},"geometry":{"type":"LineString","coordinates":[[10.208457,56.151538],[10.208043,56.151455],[10.20775,56.151491]]}},{"type":"Feature","properties":{"mode":"bus","n":5,"arr":["103","113","114","118","302"],"lines":"103, 113, 114, 118, 302"},"geometry":{"type":"LineString","coordinates":[[10.208356,56.152482],[10.208111,56.152553],[10.206467,56.152859],[10.203999,56.153107]]}}]}